NORAD_CAT_ID,OBJECT_NAME,OBJECT_TYPE,EPOCH,MEAN_MOTION,ECCENTRICITY,INCLINATION,RA_OF_ASC_NODE,ARG_OF_PERICENTER,MEAN_ANOMALY,BSTAR,MEAN_MOTION_DOT,MEAN_MOTION_DDOT,TLE_LINE0,TLE_LINE1,TLE_LINE2,SEMIMAJOR_AXIS,PERIOD,APOGEE,PERIGEE,DECAYED
53917.0,STARLINK-5036,PAYLOAD,2024-08-11 17:16:52,15.08829111,0.0001057,53.2187,15.2852,80.0284,280.0828,-0.0001069,-1.988e-05,0.0,0 STARLINK-5036,1 53917U 22119AH  24224.72004761 -.00001988  00000-0 -10690-3 0  9998,2 53917  53.2187  15.2852 0001057  80.0284 280.0828 15.08829111104606,6917.914,95.438,540.51,539.047,0.0
53917.0,STARLINK-5036,PAYLOAD,2024-08-11 20:27:38,15.08830975,0.0001506,53.2187,14.6905,87.111,273.0055,-8.0147e-05,-1.563e-05,0.0,0 STARLINK-5036,1 53917U 22119AH  24224.85252793 -.00001563  00000-0 -80147-4 0  9996,2 53917  53.2187  14.6905 0001506  87.1110 273.0055 15.08830975105046,6917.908,95.438,540.815,538.731,0.0
53917.0,STARLINK-5036,PAYLOAD,2024-08-12 02:49:09,15.08859464,9.46e-05,53.219,13.5037,95.8003,264.3097,0.0002817,4.201e-05,0.0,0 STARLINK-5036,1 53917U 22119AH  24225.11747042  .00004201  00000-0  28170-3 0  9999,2 53917  53.2190  13.5037 0000946  95.8003 264.3097 15.08859464104668,6917.821,95.436,540.34,539.031,0.0
53917.0,STARLINK-5036,PAYLOAD,2024-08-12 10:46:07,15.08812835,0.0001341,53.2187,12.0177,93.0453,267.0692,-0.00050325,-8.282e-05,0.0,0 STARLINK-5036,1 53917U 22119AH  24225.44869260 -.00008282  00000-0 -50325-3 0  9994,2 53917  53.2187  12.0177 0001341  93.0453 267.0692 15.08812835104710,6917.963,95.439,540.756,538.901,0.0
53917.0,STARLINK-5036,PAYLOAD,2024-08-12 18:43:01,15.0884685,0.0001202,53.2184,10.5281,99.855,260.2578,0.00022709,3.329e-05,0.0,0 STARLINK-5036,1 53917U 22119AH  24225.77988119  .00003329  00000-0  22709-3 0  9995,2 53917  53.2184  10.5281 0001202  99.8550 260.2578 15.08846850104761,6917.859,95.437,540.556,538.893,0.0
53917.0,STARLINK-5036,PAYLOAD,2024-08-13 02:39:57,15.08865864,0.0002337,53.2184,9.0418,72.6834,287.4414,0.00061997,9.599e-05,0.0,0 STARLINK-5036,1 53917U 22119AH  24226.11107655  .00009599  00000-0  61997-3 0  9999,2 53917  53.2184   9.0418 0002337  72.6834 287.4414 15.08865864104812,6917.801,95.436,541.283,538.05,0.0
53917.0,STARLINK-5036,PAYLOAD,2024-08-13 10:36:54,15.08806545,0.0001106,53.2151,7.5554,85.8607,274.2512,-0.00021314,-3.675e-05,0.0,0 STARLINK-5036,1 53917U 22119AH  24226.44229752 -.00003675  00000-0 -21314-3 0  9998,2 53917  53.2151   7.5554 0001106  85.8607 274.2512 15.08806545104866,6917.983,95.44,540.613,539.083,0.0
53917.0,STARLINK-5036,PAYLOAD,2024-08-13 18:33:50,15.08817258,0.0001856,53.2168,6.0666,77.1763,282.9436,-0.00015722,-2.788e-05,0.0,0 STARLINK-5036,1 53917U 22119AH  24226.77350026 -.00002788  00000-0 -15722-3 0  9993,2 53917  53.2168   6.0666 0001856  77.1763 282.9436 15.08817258104911,6917.95,95.439,541.099,538.531,0.0
53917.0,STARLINK-5036,PAYLOAD,2024-08-14 02:30:45,15.08833392,0.0001278,53.217,4.5825,79.6217,280.4919,4.4106e-05,4.14e-06,0.0,0 STARLINK-5036,1 53917U 22119AH  24227.10469473  .00000414  00000-0  44106-4 0  9999,2 53917  53.2170   4.5825 0001278  79.6217 280.4919 15.08833392104964,6917.901,95.438,540.65,538.881,0.0
53917.0,STARLINK-5036,PAYLOAD,2024-08-14 15:13:50,15.08844132,0.0001172,53.2151,2.2036,82.6017,277.5108,0.00098866,0.00015483,0.0,0 STARLINK-5036,1 53917U 22119AH  24227.63461777  .00015483  00000-0  98866-3 0  9999,2 53917  53.2151   2.2036 0001172  82.6017 277.5108 15.08844132105464,6917.868,95.437,540.544,538.922,0.0
53917.0,STARLINK-5036,PAYLOAD,2024-08-14 16:49:14,15.088514,0.0001225,53.2152,1.9065,81.2347,278.8784,0.0011932,0.00018759,0.0,0 STARLINK-5036,1 53917U 22119AH  24227.70085695  .00018759  00000-0  11932-2 0  9995,2 53917  53.2152   1.9065 0001225  81.2347 278.8784 15.08851400105058,6917.846,95.437,540.558,538.863,0.0
53917.0,STARLINK-5036,PAYLOAD,2024-08-15 15:04:37,15.08856679,0.0001173,53.2154,357.7436,93.3861,266.7266,0.0012874,0.0002027,0.0,0 STARLINK-5036,1 53917U 22119AH  24228.62821606  .00020270  00000-0  12874-2 0  9994,2 53917  53.2154 357.7436 0001173  93.3861 266.7266 15.08856679105617,6917.829,95.436,540.506,538.883,0.0
53917.0,STARLINK-5036,PAYLOAD,2024-08-16 02:12:19,15.08852844,0.0001095,53.2155,355.6625,91.5843,268.5275,0.00063254,9.797e-05,0.0,0 STARLINK-5036,1 53917U 22119AH  24229.09189353  .00009797  00000-0  63254-3 0  9992,2 53917  53.2155 355.6625 0001095  91.5843 268.5275 15.08852844105269,6917.841,95.437,540.464,538.949,0.0
53917.0,STARLINK-5036,PAYLOAD,2024-08-17 08:24:39,15.08851931,0.0003069,53.2164,350.0108,96.3175,263.8167,0.00065216,0.0001011,0.0,0 STARLINK-5036,1 53917U 22119AH  24230.35046097  .00010110  00000-0  65216-3 0  9991,2 53917  53.2164 350.0108 0003069  96.3175 263.8167 15.08851931105453,6917.844,95.437,541.832,537.586,0.0
53917.0,STARLINK-5036,PAYLOAD,2024-08-17 16:21:35,15.08836788,9.75e-05,53.2179,348.5261,85.2151,274.8952,0.00029754,4.45e-05,0.0,0 STARLINK-5036,1 53917U 22119AH  24230.68166135  .00004450  00000-0  29754-3 0  9990,2 53917  53.2179 348.5261 0000975  85.2151 274.8952 15.08836788105508,6917.89,95.438,540.43,539.081,0.0
53917.0,STARLINK-5036,PAYLOAD,2024-08-18 14:36:59,15.08848971,0.0001468,53.2174,344.361,107.816,252.2992,0.00043479,6.64e-05,0.0,0 STARLINK-5036,1 53917U 22119AH  24231.60901725  .00006640  00000-0  43479-3 0  9998,2 53917  53.2174 344.3610 0001468 107.8160 252.2992 15.08848971106067,6917.853,95.437,540.734,538.702,0.0
53917.0,STARLINK-5036,PAYLOAD,2024-08-19 06:30:50,15.08849358,0.0001516,53.2175,341.3897,105.4709,254.645,0.00023875,3.515e-05,0.0,0 STARLINK-5036,1 53917U 22119AH  24232.27141453  .00003515  00000-0  23875-3 0  9992,2 53917  53.2175 341.3897 0001516 105.4709 254.6450 15.08849358105748,6917.852,95.437,540.766,538.668,0.0
53917.0,STARLINK-5036,PAYLOAD,2024-08-19 14:27:46,15.08843108,0.0001559,53.2161,339.8958,70.0135,290.1025,0.000147,2.052e-05,0.0,0 STARLINK-5036,1 53917U 22119AH  24232.60261856  .00002052  00000-0  14700-3 0  9991,2 53917  53.2161 339.8958 0001559  70.0135 290.1025 15.08843108106213,6917.871,95.437,540.814,538.657,0.0
53917.0,STARLINK-5036,PAYLOAD,2024-08-20 11:07:47,15.08837839,0.0001508,53.2172,336.0368,85.2032,274.9132,6.5811e-06,-1.83e-06,0.0,0 STARLINK-5036,1 53917U 22119AH  24233.46374139 -.00000183  00000-0  65811-5 0  9990,2 53917  53.2172 336.0368 0001508  85.2032 274.9132 15.08837839105927,6917.887,95.438,540.795,538.709,0.0
53917.0,STARLINK-5036,PAYLOAD,2024-08-20 14:18:33,15.08843265,0.000148,53.2165,335.4411,78.9296,281.1863,9.1752e-05,1.173e-05,0.0,0 STARLINK-5036,1 53917U 22119AH  24233.59622000  .00001173  00000-0  91752-4 0  9998,2 53917  53.2165 335.4411 0001480  78.9296 281.1863 15.08843265106361,6917.87,95.437,540.759,538.712,0.0
53917.0,STARLINK-5036,PAYLOAD,2024-08-21 12:33:58,15.08831981,0.0001518,53.2173,331.278,66.1816,293.9335,8.3638e-05,1.043e-05,0.0,0 STARLINK-5036,1 53917U 22119AH  24234.52358887  .00001043  00000-0  83638-4 0  9991,2 53917  53.2173 331.2780 0001518  66.1816 293.9335 15.08831981106088,6917.905,95.438,540.82,538.72,0.0
53917.0,STARLINK-5036,PAYLOAD,2024-08-21 14:09:21,15.08831019,0.0001336,53.2173,330.9802,73.6526,286.4613,0.00011479,1.539e-05,0.0,0 STARLINK-5036,1 53917U 22119AH  24234.58982924  .00001539  00000-0  11479-3 0  9995,2 53917  53.2173 330.9802 0001336  73.6526 286.4613 15.08831019106514,6917.908,95.438,540.697,538.849,0.0
